[{"OBJECT_NAME":"DAMPE","OBJECT_ID":"2015-078A","EPOCH":"2026-03-09T23:55:00.527232","MEAN_MOTION":15.30502084,"ECCENTRICITY":0.00138005,"INCLINATION":97.4588,"RA_OF_ASC_NODE":73.9866,"ARG_OF_PERICENTER":70.6942,"MEAN_ANOMALY":289.579,"EPHEMERIS_TYPE":0,"CLASSIFICATION_TYPE":"U","NORAD_CAT_ID":41173,"ELEMENT_SET_NO":999,"REV_AT_EPOCH":56937,"BSTAR":9.1158173e-5,"MEAN_MOTION_DOT":2.617e-5,"MEAN_MOTION_DDOT":0},{"OBJECT_NAME":"STARLINK-2654","OBJECT_ID":"2021-040AC","EPOCH":"2026-03-09T14:45:45.520416","MEAN_MOTION":15.30209025,"ECCENTRICITY":0.0001338,"INCLINATION":53.1603,"RA_OF_ASC_NODE":178.4674,"ARG_OF_PERICENTER":68.4218,"MEAN_ANOMALY":291.6926,"EPHEMERIS_TYPE":0,"CLASSIFICATION_TYPE":"U","NORAD_CAT_ID":48454,"ELEMENT_SET_NO":999,"REV_AT_EPOCH":26667,"BSTAR":0.00025046,"MEAN_MOTION_DOT":7.068e-5,"MEAN_MOTION_DDOT":0}]
